DELTA 1 R/B             
1 20323U 89089B   25314.49462923  .00000649  00000+0  16930-3 0  9998
2 20323  97.0782 175.8382 0070221 138.2746 222.3838 14.50530942878455
ARIANE 40 R/B           
1 20443U 90005H   25314.42385434  .00000590  00000+0  20182-3 0  9994
2 20443  98.3288  13.5084 0009821 197.5781 162.5069 14.39759691875645
DELTA 2 R/B(1)          
1 20453U 90008B   25314.47809232  .00042867  00000+0  74504-3 0  9990
2 20453  35.6069 228.3889 0118521 244.9442 113.8946 15.42200892907643
COSMOS 2058             
1 20465U 90010A   25314.82304100  .00005031  00000+0  30681-3 0  9999
2 20465  82.4659 164.4292 0011272  29.0230 331.1624 15.10094681924291
SL-14 R/B               
1 20466U 90010B   25314.43591720  .00000773  00000+0  91065-4 0  9995
2 20466  82.5050  19.3821 0019185 336.9878  23.0476 14.83426416910801
SL-14 R/B               
1 20511U 90018B   25314.47409952  .00000710  00000+0  86335-4 0  9998
2 20511  82.5208 334.5264 0017727 121.7761 238.5183 14.81999542904928
HST                     
1 20580U 90037B   25314.78289854  .00008983  00000+0  31708-3 0  9999
2 20580  28.4674 129.9030 0001428 233.2938 126.7526 15.27415827755106
SL-16 R/B               
1 20625U 90046B   25314.36862805 -.00000196  00000+0 -76613-4 0  9991
2 20625  70.9980 188.5034 0012265 132.4809 227.7353 14.14991299831518
COSMOS 2084             
1 20663U 90055A   25314.47329181  .00004690  00000+0  34056-3 0  9995
2 20663  62.7920  21.9133 0037002 170.8846 189.2934 15.04727175918373
SL-6 R/B(2)             
1 20666U 90055D   25314.69837097  .00004060  00000+0  31567-3 0  9997
2 20666  62.7841 298.2675 0010753 280.7784  79.2104 15.02834850920304
SL-8 R/B                
1 20775U 90078B   25314.59094013  .00020497  00000+0  63273-3 0  9996
2 20775  82.9067 358.0392 0381586  53.4532 310.1176 14.84155868791600
SL-8 R/B                
1 21088U 91006B   25314.59517709  .00000175  00000+0  16065-3 0  9996
2 21088  82.9411 258.6230 0022896  12.4081 160.5016 13.77483223747675
