CCSDS_OMM_VERS = 2.0
CREATION_DATE  = 
ORIGINATOR     = 

OBJECT_NAME    = DELTA 1 R/B
OBJECT_ID      = 1989-089B
CENTER_NAME    = EARTH
REF_FRAME      = TEME
TIME_SYSTEM    = UTC
MEAN_ELEMENT_THEORY = SGP/SGP4

EPOCH          = 2025-11-10T11:52:15.965472
MEAN_MOTION    = 14.50530942
ECCENTRICITY   = .00702216
INCLINATION    = 97.0782
RA_OF_ASC_NODE = 175.8382
ARG_OF_PERICENTER = 138.2746
MEAN_ANOMALY   = 222.3838

EPHEMERIS_TYPE = 0
CLASSIFICATION_TYPE = U
NORAD_CAT_ID   = 20323
ELEMENT_SET_NO = 999
REV_AT_EPOCH   = 87845
BSTAR          = .1692964E-3
MEAN_MOTION_DOT = .649E-5
MEAN_MOTION_DDOT = 0

CCSDS_OMM_VERS = 2.0
CREATION_DATE  = 
ORIGINATOR     = 

OBJECT_NAME    = ARIANE 40 R/B
OBJECT_ID      = 1990-005H
CENTER_NAME    = EARTH
REF_FRAME      = TEME
TIME_SYSTEM    = UTC
MEAN_ELEMENT_THEORY = SGP/SGP4

EPOCH          = 2025-11-10T10:10:21.014976
MEAN_MOTION    = 14.39759691
ECCENTRICITY   = .00098215
INCLINATION    = 98.3288
RA_OF_ASC_NODE = 13.5084
ARG_OF_PERICENTER = 197.5781
MEAN_ANOMALY   = 162.5069

EPHEMERIS_TYPE = 0
CLASSIFICATION_TYPE = U
NORAD_CAT_ID   = 20443
ELEMENT_SET_NO = 999
REV_AT_EPOCH   = 87564
BSTAR          = .20182273E-3
MEAN_MOTION_DOT = .59E-5
MEAN_MOTION_DDOT = 0

CCSDS_OMM_VERS = 2.0
CREATION_DATE  = 
ORIGINATOR     = 

OBJECT_NAME    = DELTA 2 R/B(1)
OBJECT_ID      = 1990-008B
CENTER_NAME    = EARTH
REF_FRAME      = TEME
TIME_SYSTEM    = UTC
MEAN_ELEMENT_THEORY = SGP/SGP4

EPOCH          = 2025-11-10T11:28:27.176448
MEAN_MOTION    = 15.42200892
ECCENTRICITY   = .01185211
INCLINATION    = 35.6069
RA_OF_ASC_NODE = 228.3889
ARG_OF_PERICENTER = 244.9442
MEAN_ANOMALY   = 113.8946

EPHEMERIS_TYPE = 0
CLASSIFICATION_TYPE = U
NORAD_CAT_ID   = 20453
ELEMENT_SET_NO = 999
REV_AT_EPOCH   = 90764
BSTAR          = .74503663E-3
MEAN_MOTION_DOT = .42867E-3
MEAN_MOTION_DDOT = 0

CCSDS_OMM_VERS = 2.0
CREATION_DATE  = 
ORIGINATOR     = 

OBJECT_NAME    = COSMOS 2058
OBJECT_ID      = 1990-010A
CENTER_NAME    = EARTH
REF_FRAME      = TEME
TIME_SYSTEM    = UTC
MEAN_ELEMENT_THEORY = SGP/SGP4

EPOCH          = 2025-11-10T19:45:10.742400
MEAN_MOTION    = 15.10094681
ECCENTRICITY   = .00112724
INCLINATION    = 82.4659
RA_OF_ASC_NODE = 164.4292
ARG_OF_PERICENTER = 29.0230
MEAN_ANOMALY   = 331.1624

EPHEMERIS_TYPE = 0
CLASSIFICATION_TYPE = U
NORAD_CAT_ID   = 20465
ELEMENT_SET_NO = 999
REV_AT_EPOCH   = 92429
BSTAR          = .30680501E-3
MEAN_MOTION_DOT = .5031E-4
MEAN_MOTION_DDOT = 0

CCSDS_OMM_VERS = 2.0
CREATION_DATE  = 
ORIGINATOR     = 

OBJECT_NAME    = SL-14 R/B
OBJECT_ID      = 1990-010B
CENTER_NAME    = EARTH
REF_FRAME      = TEME
TIME_SYSTEM    = UTC
MEAN_ELEMENT_THEORY = SGP/SGP4

EPOCH          = 2025-11-10T10:27:43.246080
MEAN_MOTION    = 14.83426416
ECCENTRICITY   = .00191857
INCLINATION    = 82.5050
RA_OF_ASC_NODE = 19.3821
ARG_OF_PERICENTER = 336.9878
MEAN_ANOMALY   = 23.0476

EPHEMERIS_TYPE = 0
CLASSIFICATION_TYPE = U
NORAD_CAT_ID   = 20466
ELEMENT_SET_NO = 999
REV_AT_EPOCH   = 91080
BSTAR          = .91064812E-4
MEAN_MOTION_DOT = .773E-5
MEAN_MOTION_DDOT = 0

CCSDS_OMM_VERS = 2.0
CREATION_DATE  = 
ORIGINATOR     = 

OBJECT_NAME    = SL-14 R/B
OBJECT_ID      = 1990-018B
CENTER_NAME    = EARTH
REF_FRAME      = TEME
TIME_SYSTEM    = UTC
MEAN_ELEMENT_THEORY = SGP/SGP4

EPOCH          = 2025-11-10T11:22:42.198528
MEAN_MOTION    = 14.81999542
ECCENTRICITY   = .00177275
INCLINATION    = 82.5208
RA_OF_ASC_NODE = 334.5264
ARG_OF_PERICENTER = 121.7761
MEAN_ANOMALY   = 238.5183

EPHEMERIS_TYPE = 0
CLASSIFICATION_TYPE = U
NORAD_CAT_ID   = 20511
ELEMENT_SET_NO = 999
REV_AT_EPOCH   = 90492
BSTAR          = .86334572E-4
MEAN_MOTION_DOT = .71E-5
MEAN_MOTION_DDOT = 0

CCSDS_OMM_VERS = 2.0
CREATION_DATE  = 
ORIGINATOR     = 

OBJECT_NAME    = HST
OBJECT_ID      = 1990-037B
CENTER_NAME    = EARTH
REF_FRAME      = TEME
TIME_SYSTEM    = UTC
MEAN_ELEMENT_THEORY = SGP/SGP4

EPOCH          = 2025-11-10T18:47:22.433856
MEAN_MOTION    = 15.27415827
ECCENTRICITY   = .00014285
INCLINATION    = 28.4674
RA_OF_ASC_NODE = 129.9030
ARG_OF_PERICENTER = 233.2938
MEAN_ANOMALY   = 126.7526

EPHEMERIS_TYPE = 0
CLASSIFICATION_TYPE = U
NORAD_CAT_ID   = 20580
ELEMENT_SET_NO = 999
REV_AT_EPOCH   = 75510
BSTAR          = .31708277E-3
MEAN_MOTION_DOT = .8983E-4
MEAN_MOTION_DDOT = 0

CCSDS_OMM_VERS = 2.0
CREATION_DATE  = 
ORIGINATOR     = 

OBJECT_NAME    = SL-16 R/B
OBJECT_ID      = 1990-046B
CENTER_NAME    = EARTH
REF_FRAME      = TEME
TIME_SYSTEM    = UTC
MEAN_ELEMENT_THEORY = SGP/SGP4

EPOCH          = 2025-11-10T08:50:49.463520
MEAN_MOTION    = 14.14991299
ECCENTRICITY   = .00122651
INCLINATION    = 70.9980
RA_OF_ASC_NODE = 188.5034
ARG_OF_PERICENTER = 132.4809
MEAN_ANOMALY   = 227.7353

EPHEMERIS_TYPE = 0
CLASSIFICATION_TYPE = U
NORAD_CAT_ID   = 20625
ELEMENT_SET_NO = 999
REV_AT_EPOCH   = 83151
BSTAR          = -.76612547E-4
MEAN_MOTION_DOT = -.196E-5
MEAN_MOTION_DDOT = 0

CCSDS_OMM_VERS = 2.0
CREATION_DATE  = 
ORIGINATOR     = 

OBJECT_NAME    = COSMOS 2084
OBJECT_ID      = 1990-055A
CENTER_NAME    = EARTH
REF_FRAME      = TEME
TIME_SYSTEM    = UTC
MEAN_ELEMENT_THEORY = SGP/SGP4

EPOCH          = 2025-11-10T11:21:32.412384
MEAN_MOTION    = 15.04727175
ECCENTRICITY   = .00370026
INCLINATION    = 62.7920
RA_OF_ASC_NODE = 21.9133
ARG_OF_PERICENTER = 170.8846
MEAN_ANOMALY   = 189.2934

EPHEMERIS_TYPE = 0
CLASSIFICATION_TYPE = U
NORAD_CAT_ID   = 20663
ELEMENT_SET_NO = 999
REV_AT_EPOCH   = 91837
BSTAR          = .34055946E-3
MEAN_MOTION_DOT = .469E-4
MEAN_MOTION_DDOT = 0

CCSDS_OMM_VERS = 2.0
CREATION_DATE  = 
ORIGINATOR     = 

OBJECT_NAME    = SL-6 R/B(2)
OBJECT_ID      = 1990-055D
CENTER_NAME    = EARTH
REF_FRAME      = TEME
TIME_SYSTEM    = UTC
MEAN_ELEMENT_THEORY = SGP/SGP4

EPOCH          = 2025-11-10T16:45:39.251808
MEAN_MOTION    = 15.02834850
ECCENTRICITY   = .00107539
INCLINATION    = 62.7841
RA_OF_ASC_NODE = 298.2675
ARG_OF_PERICENTER = 280.7784
MEAN_ANOMALY   = 79.2104

EPHEMERIS_TYPE = 0
CLASSIFICATION_TYPE = U
NORAD_CAT_ID   = 20666
ELEMENT_SET_NO = 999
REV_AT_EPOCH   = 92030
BSTAR          = .31567394E-3
MEAN_MOTION_DOT = .406E-4
MEAN_MOTION_DDOT = 0

CCSDS_OMM_VERS = 2.0
CREATION_DATE  = 
ORIGINATOR     = 

OBJECT_NAME    = SL-8 R/B
OBJECT_ID      = 1990-078B
CENTER_NAME    = EARTH
REF_FRAME      = TEME
TIME_SYSTEM    = UTC
MEAN_ELEMENT_THEORY = SGP/SGP4

EPOCH          = 2025-11-10T14:10:57.227232
MEAN_MOTION    = 14.84155868
ECCENTRICITY   = .03815864
INCLINATION    = 82.9067
RA_OF_ASC_NODE = 358.0392
ARG_OF_PERICENTER = 53.4532
MEAN_ANOMALY   = 310.1176

EPHEMERIS_TYPE = 0
CLASSIFICATION_TYPE = U
NORAD_CAT_ID   = 20775
ELEMENT_SET_NO = 999
REV_AT_EPOCH   = 79160
BSTAR          = .63273335E-3
MEAN_MOTION_DOT = .20497E-3
MEAN_MOTION_DDOT = 0

CCSDS_OMM_VERS = 2.0
CREATION_DATE  = 
ORIGINATOR     = 

OBJECT_NAME    = SL-8 R/B
OBJECT_ID      = 1991-006B
CENTER_NAME    = EARTH
REF_FRAME      = TEME
TIME_SYSTEM    = UTC
MEAN_ELEMENT_THEORY = SGP/SGP4

EPOCH          = 2025-11-10T14:17:03.300576
MEAN_MOTION    = 13.77483223
ECCENTRICITY   = .00228967
INCLINATION    = 82.9411
RA_OF_ASC_NODE = 258.6230
ARG_OF_PERICENTER = 12.4081
MEAN_ANOMALY   = 160.5016

EPHEMERIS_TYPE = 0
CLASSIFICATION_TYPE = U
NORAD_CAT_ID   = 21088
ELEMENT_SET_NO = 999
REV_AT_EPOCH   = 74767
BSTAR          = .1606538E-3
MEAN_MOTION_DOT = .175E-5
MEAN_MOTION_DDOT = 0

